     3.04           N: GNSS NAV DATA    M: Mixed            RINEX VERSION / TYPE
CONVBIN demo5 b34g                      20221018 165401 UTC PGM / RUN BY / DATE 
log: /home/dominic/Bureau/ubx/2022.09.26_202748.ubx         COMMENT             
format: u-blox UBX                                          COMMENT             
format: u-blox UBX                                          COMMENT             
log: /home/dominic/Bureau/ubx/2022.09.26_202748.ubx         COMMENT             
                                                            END OF HEADER       
E07 2022 09 26 20 50 00 -.708528968971D-03 -.304112290905D-11  .000000000000D+00
      .130000000000D+02 -.116906250000D+03  .351586073543D-08  .238246510200D+01
     -.533275306225D-05  .175693188794D-03  .677257776260D-05  .544062858200D+04
      .161400000000D+06 -.409781932831D-07  .235730794786D+01  .242143869400D-07
      .957244851925D+00  .193531250000D+03  .126959674666D+00 -.585167231707D-08
     -.514664294977D-09  .513000000000D+03  .222900000000D+04  .000000000000D+00
      .312000000000D+01  .000000000000D+00  .558793544769D-08  .605359673500D-08
      .162064000000D+06  .000000000000D+00
E30 2022 09 26 20 50 00 -.868724542670D-03 -.306386027660D-10  .000000000000D+00
      .130000000000D+02  .101156250000D+03  .350121726832D-08  .115943519854D+01
      .475347042084D-05  .261324457824D-03  .242702662945D-05  .544062546921D+04
      .161400000000D+06  .502914190292D-07 -.182508588510D+01  .104308128357D-06
      .969314663389D+00  .290937500000D+03  .798411987121D-01 -.607989610922D-08
      .326799326789D-09  .513000000000D+03  .222900000000D+04  .000000000000D+00
      .312000000000D+01  .000000000000D+00  .162981450558D-08  .162981450558D-08
      .162064000000D+06  .000000000000D+00
E12 2022 09 26 20 50 00 -.190624385141D-03 -.204636307899D-10  .000000000000D+00
      .130000000000D+02  .306250000000D+01  .219366280343D-08  .140794206404D+01
      .137835741043D-06  .157930073328D-03  .161305069923D-04  .544061676979D+04
      .161400000000D+06  .111758708954D-07  .259187555791D+00  .596046447754D-07
      .995689474463D+00  .778125000000D+01  .873328516427D+00 -.515092884258D-08
      .180007498035D-09  .513000000000D+03  .222900000000D+04  .000000000000D+00
      .312000000000D+01  .000000000000D+00 -.102445483208D-07 -.100117176771D-07
      .162064000000D+06  .000000000000D+00
E33 2022 09 26 20 50 00 -.454117311165D-03 -.454747350886D-12  .000000000000D+00
      .130000000000D+02  .163750000000D+02  .206544317686D-08 -.569391858988D+00
      .752508640289D-06  .758887035772D-04  .160094350576D-04  .544060971832D+04
      .161400000000D+06  .372529029846D-07  .256774612859D+00  .596046447754D-07
      .998808266591D+00  .119375000000D+02 -.263684680805D+01 -.507163982558D-08
      .225366530278D-09  .513000000000D+03  .222900000000D+04  .000000000000D+00
      .312000000000D+01  .000000000000D+00 -.302679836750D-08 -.349245965481D-08
      .162064000000D+06  .000000000000D+00
E19 2022 09 26 20 50 00 -.442433846183D-02  .102374997368D-09  .000000000000D+00
      .130000000000D+02 -.112437500000D+03  .340478468009D-08 -.210157949406D+01
     -.534579157829D-05  .492695253342D-04  .708177685738D-05  .544061663628D+04
      .161400000000D+06  .428408384323D-07  .235973787820D+01  .372529029846D-07
      .962876910980D+00  .188218750000D+03 -.313929613407D+01 -.584702926652D-08
     -.575023952056D-09  .513000000000D+03  .222900000000D+04  .000000000000D+00
      .312000000000D+01  .000000000000D+00 -.302679836750D-08 -.302679836750D-08
      .162064000000D+06  .000000000000D+00
E21 2022 09 26 20 50 00 -.760024006013D-03 -.224531504500D-11  .000000000000D+00
      .130000000000D+02  .979687500000D+02  .351157484262D-08  .911000451968D+00
      .442564487457D-05  .210457830690D-03  .191852450371D-05  .544061226845D+04
      .161400000000D+06  .279396772385D-07 -.182901928561D+01 -.223517417908D-07
      .971443359875D+00  .303000000000D+03 -.128330247797D+01 -.605668085650D-08
      .289654922433D-09  .513000000000D+03  .222900000000D+04  .000000000000D+00
      .312000000000D+01  .000000000000D+00  .279396772385D-08  .279396772385D-08
      .162064000000D+06  .000000000000D+00
E10 2022 09 26 20 50 00 -.479573849589D-03 -.267164068646D-11  .000000000000D+00
      .130000000000D+02 -.130000000000D+02  .208937274505D-08 -.515901406347D+00
     -.605359673500D-06  .383148435503D-03  .157374888659D-04  .544061201859D+04
      .161400000000D+06  .689178705215D-07  .255000834928D+00 -.111758708954D-07
      .998693965875D+00  .189687500000D+02  .240709082920D+01 -.508842623909D-08
      .155006456641D-09  .513000000000D+03  .222900000000D+04  .000000000000D+00
      .312000000000D+01  .000000000000D+00  .465661287308D-09  .116415321827D-08
      .162064000000D+06  .000000000000D+00
E11 2022 09 26 20 50 00  .205233239103D-02 -.165442770594D-09 -.173472347598D-17
      .130000000000D+02 -.158125000000D+02  .211865967925D-08  .995154704759D-02
     -.692903995514D-06  .327177927829D-03  .157374888659D-04  .544062500381D+04
      .161400000000D+06  .372529029846D-08  .259192640894D+00 -.633299350739D-07
      .995676653449D+00  .193125000000D+02  .145465554868D+01 -.506771109051D-08
      .162506769059D-09  .513000000000D+03  .222900000000D+04  .000000000000D+00
      .312000000000D+01  .000000000000D+00 -.132713466883D-07 -.144354999065D-07
      .162085000000D+06  .000000000000D+00
S36 2022  9 26 21  1 20  .000000000000D+00  .000000000000D+00  .162087000000D+06
      .420036880000D+05  .000000000000D+00  .000000000000D+00  .100000000000D+01
      .367484696000D+04  .000000000000D+00  .000000000000D+00  .819200000000D+04
      .000000000000D+00  .000000000000D+00  .000000000000D+00  .000000000000D+00
R10 2022 09 26 21 15 00 -.863811001182D-04  .000000000000D+00  .162090000000D+06
     -.191455322266D+04 -.756292343140D-01 -.465661287308D-08  .000000000000D+00
     -.243631757812D+05 -.991562843323D+00 -.186264514923D-08 -.700000000000D+01
     -.718227001953D+04  .339099979401D+01  .000000000000D+00  .000000000000D+00
E14 2022 09 26 20 50 00  .109290122055D-04  .108570930024D-10  .000000000000D+00
      .130000000000D+02 -.536562500000D+02  .572345269049D-08 -.120136566959D+01
     -.428967177868D-05  .161504530814D+00  .124964863062D-04  .528936990929D+04
      .161400000000D+06 -.353343784809D-05 -.635173067611D+00 -.120326876640D-05
      .876758693593D+00  .113093750000D+03  .224349868081D+01 -.990612691566D-08
      .188579283656D-09  .513000000000D+03  .222900000000D+04  .000000000000D+00
      .312000000000D+01  .130000000000D+03 -.302679836750D-08 -.372529029846D-08
      .162145000000D+06  .000000000000D+00
S31 2022  9 26 21  4  0  .563450157642D-07  .181898940355D-10  .162216000000D+06
     -.191302076800D+05  .156875000000D-03 -.250000000000D-07  .000000000000D+00
     -.375735882400D+05 -.198750000000D-03 -.125000000000D-07  .200000000000D+01
     -.546000000000D+00  .248000000000D-03  .000000000000D+00  .000000000000D+00
S36 2022  9 26 21  4  0  .000000000000D+00  .000000000000D+00  .162246000000D+06
      .420036880000D+05  .000000000000D+00  .000000000000D+00  .100000000000D+01
      .367484696000D+04  .000000000000D+00  .000000000000D+00  .819200000000D+04
      .000000000000D+00  .000000000000D+00  .000000000000D+00  .000000000000D+00
S36 2022  9 26 21  6 40  .000000000000D+00  .000000000000D+00  .162403000000D+06
      .420036880000D+05  .000000000000D+00  .000000000000D+00  .100000000000D+01
      .367484696000D+04  .000000000000D+00  .000000000000D+00  .819200000000D+04
      .000000000000D+00  .000000000000D+00  .000000000000D+00  .000000000000D+00
S36 2022  9 26 21  9 20  .000000000000D+00  .000000000000D+00  .162563000000D+06
      .420036880000D+05  .000000000000D+00  .000000000000D+00  .100000000000D+01
      .367484696000D+04  .000000000000D+00  .000000000000D+00  .819200000000D+04
      .000000000000D+00  .000000000000D+00  .000000000000D+00  .000000000000D+00
E27 2022 09 26 20 50 00 -.401421741117D-03 -.893862761586D-11  .000000000000D+00
      .130000000000D+02  .100031250000D+03  .355050503564D-08  .144335451822D+01
      .470317900181D-05  .344300526194D-03  .170245766640D-05  .544061305618D+04
      .161400000000D+06  .558793544769D-07 -.182903048278D+01 -.223517417908D-07
      .971414914896D+00  .305250000000D+03 -.102139256476D+01 -.607811032055D-08
      .272154193457D-09  .513000000000D+03  .222900000000D+04  .000000000000D+00
      .312000000000D+01  .000000000000D+00  .279396772385D-08  .302679836750D-08
      .162574000000D+06  .000000000000D+00
E14 2022 09 26 21 00 00  .109354732558D-04  .108570930024D-10  .000000000000D+00
      .140000000000D+02 -.683437500000D+02  .594239038155D-08 -.112043130095D+01
     -.510551035404D-05  .161503022653D+00  .118855386972D-04  .528936296844D+04
      .162000000000D+06 -.300444662571D-05 -.635180281260D+00 -.159442424774D-05
      .876758283976D+00  .122437500000D+03  .224351597542D+01 -.102107824629D-07
      .413588656199D-09  .513000000000D+03  .222900000000D+04  .000000000000D+00
      .312000000000D+01  .130000000000D+03 -.302679836750D-08 -.372529029846D-08
      .162664000000D+06  .000000000000D+00
E07 2022 09 26 21 00 00 -.708530831616D-03 -.304112290905D-11  .000000000000D+00
      .140000000000D+02 -.116906250000D+03  .350764610754D-08  .245669020209D+01
     -.533275306225D-05  .175475375727D-03  .670738518238D-05  .544062901497D+04
      .162000000000D+06 -.409781932831D-07  .235730444125D+01  .242143869400D-07
      .957244540323D+00  .195312500000D+03  .127119720829D+00 -.585238663254D-08
     -.514664294977D-09  .513000000000D+03  .222900000000D+04  .000000000000D+00
      .312000000000D+01  .000000000000D+00  .558793544769D-08  .605359673500D-08
      .162664000000D+06  .000000000000D+00
